date:2024-08-30T03:18:30+00:00
validtle:1
satid:53575
launchyear:2022
epoch:24241.71979046
epochday:241
tleage:2
tleclassification:U
active:1
name:STARLINK-4551
meananomly:270.2340
meanmotion:15.0886
rightascension:0.0000
declination:0.0000
semimajoraxis:6917.8339445566
altitudeatperigee:539
altitudeatapogee:541
inclination:53.2142
eccentricity:0.0001364
argumentofperigree:89.8809
nickname:STARLINK-4551
idesg:22101BA 
cosparid:2022-101BA
altkm:540.59027969967
velkms:7.5932527927927
velkmh:27336
onumepoch:11290
onumnow:170371.22
otype:1
otypedesc:Low Earth Orbit (LEO)
status:1
timestamp:2024-08-28T17:16:30+00:00
nowjuliandate:2460552.6378477
nowepochdate:24243.1378472222
TLE:
STARLINK-4551
1 53575U 22101BA  24241.71979046  .00004711  00000+0  31375-3 0  9991
2 53575  53.2142  38.7355 0001364  89.8809 270.2340 15.08855870112909